JILIN-1 GAOFEN 3H       
1 46460U 20065G   26186.23075275  .00130385  00000+0  10373-2 0  9992
2 46460  97.2179 239.8628 0004806 239.9941 120.0845 15.70800702322715
JILIN-1 KUANFU-01B      
1 49003U 21061A   26186.26652281  .00003714  00000+0  23382-3 0  9996
2 49003  97.5204 262.1259 0006895  13.8076 346.3341 15.09775548276072
JILIN-1 GAOFEN 2D       
1 49256U 21086A   26186.17605701  .00007128  00000+0  42692-3 0  9996
2 49256  97.6497 308.8865 0034503  83.7091 276.8067 15.10806597263437
JILIN-1 GAOFEN 2F       
1 49338U 21097A   26186.28494660  .00006412  00000+0  42026-3 0  9997
2 49338  97.6729 312.4430 0019208 161.5012 198.6918 15.07899893259043
JILIN-1 KUANFU 01C      
1 52443U 22048A   26186.19072526  .00003924  00000+0  24765-3 0  9993
2 52443  97.5246 263.0380 0016663 256.8812 103.0557 15.09563914229916
JILIN-1 GAOFEN 3D27     
1 52444U 22048B   26186.16986305  .00225952  00000+0  11767-2 0  9994
2 52444  97.5721 301.7992 0003770 270.2543  89.8292 15.80304935232310
JILIN-1 GAOFEN 3D28     
1 52445U 22048C   26186.19245347  .00270537  00000+0  11557-2 0  9998
2 52445  97.5670 302.0597 0003577 258.5715 101.5153 15.84472033232377
JILIN-1 GAOFEN 3D29     
1 52446U 22048D   26186.28264553  .00195724  00000+0  10129-2 0  9997
2 52446  97.5717 302.2858 0003403 242.8336 117.2585 15.80524196232350
JILIN-1 GAOFEN 3D31     
1 52448U 22048F   26186.24476245  .00324310  40403-4  11487-2 0  9997
2 52448  97.5702 303.4414 0004053 247.6276 112.4567 15.88997802232448
JILIN-1 GAOFEN 03D09    
1 53445U 22098B   26186.33900269  .00085998  00000+0  74065-3 0  9990
2 53445  97.5619 317.4045 0002659 265.8349  94.2608 15.69024088217476
JILIN-1 GAOFEN 03D43    
1 53448U 22098E   26186.33768659  .00104287  00000+0  77509-3 0  9997
2 53448  97.5603 318.5083 0002926 256.8885 103.2052 15.72513838217540
JILIN-1 GAOFEN 03D08    
1 54251U 22155A   26186.31764161  .00072435  00000+0  68990-3 0  9999
2 54251  97.6228 333.1908 0003685 263.1004  96.9837 15.66579420202650
JILIN-1 GAOFEN 03D51    
1 54252U 22155B   26186.34365103  .00058938  00000+0  62233-3 0  9992
2 54252  97.6252 332.5722 0003841 269.0721  91.0097 15.64025869202587
JILIN-1 GAOFEN 03D53    
1 54253U 22155C   26186.32137678  .00038449  00000+0  59569-3 0  9998
2 54253  97.6242 327.9138 0004503 294.5425  65.5358 15.53929517202303
JILIN-1 GAOFEN 03D54    
1 54254U 22155D   26185.20568878  .02649382  25932-5  96265-3 0  9992
2 54254  97.6175 340.8749 0012818 269.0365  90.9457 16.24574902203035
JILIN-1 GAOFEN 03D52    
1 54255U 22155E   26186.31446799  .00054436  00000+0  63908-3 0  9992
2 54255  97.6225 330.7992 0003265 289.4174  70.6730 15.61311093202533
